0 INTELSAT 7 (PAS 7)
1 25473U 98052A   13282.06875512 -.00000039  00000-0  10000-3 0  7215
2 25473 000.4081 080.6002 0003338 136.0554 254.6328 01.00273919 55184
0 INTELSAT 7 (PAS 7)
1 25473U 98052A   13282.99587975 -.00000025  00000-0  10000-3 0  7237
2 25473 000.4124 083.6743 0004380 152.0444 210.2429 01.00270350 55198
0 INTELSAT 7 (PAS 7)
1 25473U 98052A   13285.84848780 -.00000050  00000-0  10000-3 0  7236
2 25473 000.4157 080.6102 0003114 108.4080 206.6864 01.00271851 55228
0 INTELSAT 7 (PAS 7)
1 25473U 98052A   13286.89524626 -.00000051  00000-0  10000-3 0  7244
2 25473 000.4180 080.6151 0003136 109.2884 223.6633 01.00271885 55234
0 INTELSAT 7 (PAS 7)
1 25473U 98052A   13287.98027561 -.00000051  00000-0  10000-3 0  7252
2 25473 000.4205 080.6076 0003204 114.4116 250.2220 01.00271895 55240
0 INTELSAT 7 (PAS 7)
1 25473U 98052A   13289.76482367 -.00000049  00000-0  10000-3 0  7267
2 25473 000.4243 080.5835 0003262 112.8729 175.9832 01.00272156 55265
0 INTELSAT 7 (PAS 7)
1 25473U 98052A   13290.83747052 -.00000047  00000-0  10000-3 0  7271
2 25473 000.4266 080.5871 0003275 112.5474 203.5160 01.00272280 55279
0 INTELSAT 7 (PAS 7)
1 25473U 98052A   13291.83863182 -.00000045  00000-0  10000-3 0  7284
2 25473 000.4288 080.5855 0003281 112.7372 204.7343 01.00272417 55280
0 INTELSAT 7 (PAS 7)
1 25473U 98052A   13292.88447836 -.00000043  00000-0  10000-3 0  7293
2 25473 000.4310 080.5734 0003283 112.8530 222.1680 01.00272547 55294
0 INTELSAT 7 (PAS 7)
1 25473U 98052A   13293.92406638 -.00000041  00000-0  10000-3 0  7304
2 25473 000.4332 080.5780 0003286 113.7708 236.5232 01.00272665 55304
0 INTELSAT 7 (PAS 7)
1 25473U 98052A   13294.82704756 -.00000040  00000-0  10000-3 0  7316
2 25473 000.4344 080.5749 0003969 099.2206 217.0652 01.00273250 55313
